FENGYUN 1C DEB          
1 30701U 99025ARK 17345.95334074 -.00000032  00000-0  69404-5 0  9995
2 30701  99.0616 352.5207 0035711 106.0255 314.5711 14.13784406558192
